STARLINK-11724 [DTC]    
1 64124C 25111B   25280.79631944 -.00004915  00000+0 -38207-4 0  2804
2 64124  43.0003 175.3210 0001627 274.5877 110.1277 15.70822232    16
STARLINK-11725 [DTC]    
1 64125C 25111C   25280.79423611 -.00013268  00000+0 -10314-3 0  2804
2 64125  43.0001 175.5569 0001579 271.2938  11.4405 15.70830997    15
STARLINK-11717 [DTC]    
1 64126C 25111D   25280.79909722 -.00005547  00000+0 -43117-4 0  2806
2 64126  43.0003 175.6016 0001586 265.3217  14.8770 15.70824254    19
STARLINK-11721 [DTC]    
1 64127C 25111E   25280.79423611 -.00003815  00000+0 -29657-4 0  2804
2 64127  43.0003 175.1082 0001645 261.7033 201.4032 15.70821722    12
STARLINK-11722 [DTC]    
1 64128C 25111F   25280.79493056 -.00012853  00000+0 -99915-4 0  2801
2 64128  43.0002 175.4026 0001821 271.9837  74.8063 15.70829939    18
STARLINK-11679 [DTC]    
1 64129C 25111G   25280.79701389  .00003317  00000+0  25789-4 0  2804
2 64129  43.0001 175.1653 0001705 269.9683 178.8123 15.70813646    18
STARLINK-11735 [DTC]    
1 64130C 25111H   25280.79562500 -.00001724  00000+0 -13401-4 0  2806
2 64130  43.0001 175.4722 0001660 264.2934  56.3741 15.70818692    19
STARLINK-11720 [DTC]    
1 64131C 25111J   25280.79631944 -.00007894  00000+0 -61365-4 0  2802
2 64131  43.0003 175.2435 0001618 267.1426 147.6370 15.70825509    19
STARLINK-11718 [DTC]    
1 64132C 25111K   25280.79979167  .00016247  00000+0  12634-3 0  2809
2 64132  43.0000 175.7560 0001863 266.1351 312.7525 15.70793573    11
STARLINK-11716 [DTC]    
1 64133C 25111L   25280.79770833 -.00003553  00000+0 -27622-4 0  2801
2 64133  43.0001 175.6808 0001615 269.2596 333.0223 15.70822290    17
STARLINK-11714 [DTC]    
1 64134C 25111M   25280.79354167 -.00007855  00000+0 -61068-4 0  2801
2 64134  43.0003 175.0352 0001962 263.7121 225.5256 15.70823672    12
STARLINK-11712 [DTC]    
1 64135C 25111N   25280.79354167 -.00003778  00000+0 -29367-4 0  2808
2 64135  43.0001 175.8574 0001562 268.0871 250.4776 15.70822190    19
STARLINK-34254          
1 64136C 25111P   25280.39354167  .00036325  00000+0  13151-2 0  2809
2 64136  43.0002 223.2916 0001482 272.5843  41.3238 15.27555708    19
STARLINK-34230          
1 64137C 25111Q   25280.39631944  .00039412  00000+0  14265-2 0  2808
2 64137  43.0045 223.7009 0001562 268.1284 244.2063 15.27561967    18
STARLINK-34129          
1 64138C 25111R   25280.39701389  .00041410  00000+0  15003-2 0  2802
2 64138  43.0047 223.7997 0001600 262.2791 211.5152 15.27527641    15
STARLINK-34212          
1 64139C 25111S   25280.39215278  .00042103  00000+0  15243-2 0  2806
2 64139  43.0015 223.4332 0001239 260.4381 349.2266 15.27551663    10
STARLINK-34149          
1 64140C 25111T   25280.39631944  .00042586  00000+0  15421-2 0  2803
2 64140  43.0034 223.5488 0001231 253.7752 322.2431 15.27543692    13
STARLINK-34054          
1 64141C 25111U   25280.39631944  .00041567  00000+0  15050-2 0  2800
2 64141  43.0031 223.5136 0001543 274.1613 316.0035 15.27548258    14
STARLINK-34195          
1 64142C 25111V   25280.39493056  .00041094  00000+0  14878-2 0  2803
2 64142  43.0011 223.3648 0001490 274.4836  11.7062 15.27551490    11
STARLINK-34133          
1 64143C 25111W   25280.39770833  .00040214  00000+0  14562-2 0  2808
2 64143  43.0005 223.2973 0001454 277.6967  45.0164 15.27546852    14
STARLINK-34181          
1 64144C 25111X   25280.39493056  .00043795  00000+0  15854-2 0  2800
2 64144  43.0035 223.6078 0001537 270.1433 276.9893 15.27552064    12
STARLINK-34186          
1 64145C 25111Y   25280.39562500  .00041706  00000+0  15122-2 0  2800
2 64145  43.0049 223.7195 0001690 253.3682 248.0512 15.27501851    14
STARLINK-34314          
1 64146C 25112A   25280.39631944  .00008611  00000+0  59802-3 0  2803
2 64146  97.6040 330.3897 0000984  94.1019 159.8055 15.05636607    10
STARLINK-33926          
1 64147C 25112B   25280.82965278 -.00029913  00000+0 -20770-2 0  2803
2 64147  97.6029 330.8754 0001125 113.0431 103.1286 15.05682715    11
STARLINK-34213          
1 64148C 25112C   25280.39631944  .00007805  00000+0  54170-3 0  2802
2 64148  97.6031 330.3703 0000891 101.9200 106.9993 15.05660537    17
STARLINK-33924          
1 64149C 25112D   25280.82895833 -.00029295  00000+0 -20342-2 0  2802
2 64149  97.6033 330.7790 0000203 121.1023 226.3652 15.05680317    11
STARLINK-34209          
1 64150C 25112E   25280.39562500  .00007086  00000+0  49203-3 0  2808
2 64150  97.6031 330.4650 0000645 100.1862 329.9123 15.05642150    17
STARLINK-34338          
1 64151C 25112F   25280.39145833  .00006661  00000+0  46252-3 0  2804
2 64151  97.6033 330.4809 0000183 126.7969 325.7216 15.05644292    11
STARLINK-34348          
1 64152C 25112G   25280.39562500  .00008924  00000+0  61964-3 0  2800
2 64152  97.6043 330.4105 0002055 111.4255 183.6953 15.05640908    10
