OBJECT_NAME,OBJECT_ID,EPOCH,MEAN_MOTION,ECCENTRICITY,INCLINATION,RA_OF_ASC_NODE,ARG_OF_PERICENTER,MEAN_ANOMALY,EPHEMERIS_TYPE,CLASSIFICATION_TYPE,NORAD_CAT_ID,ELEMENT_SET_NO,REV_AT_EPOCH,BSTAR,MEAN_MOTION_DOT,MEAN_MOTION_DDOT,RMS,DATA_SOURCE
STARLINK-11724 [DTC],2025-111B,2025-10-07T19:06:41.999962,15.70822232,0.0001627,43.0003,175.321,274.5877,110.1277,0,C,64124,280,1,-3.8207e-05,-4.9148e-05,0,0.476,SpaceX-E
STARLINK-11725 [DTC],2025-111C,2025-10-07T19:03:41.999990,15.70830997,0.0001579,43.0001,175.5569,271.2938,11.4405,0,C,64125,280,1,-0.00010314,-0.00013268,0,0.405,SpaceX-E
STARLINK-11717 [DTC],2025-111D,2025-10-07T19:10:41.999981,15.70824254,0.0001586,43.0003,175.6016,265.3217,14.877,0,C,64126,280,1,-4.3117e-05,-5.5467e-05,0,0.446,SpaceX-E
STARLINK-11721 [DTC],2025-111E,2025-10-07T19:03:41.999990,15.70821722,0.0001645,43.0003,175.1082,261.7033,201.4032,0,C,64127,280,1,-2.9657e-05,-3.8151e-05,0,0.422,SpaceX-E
STARLINK-11722 [DTC],2025-111F,2025-10-07T19:04:42.000038,15.70829939,0.0001821,43.0002,175.4026,271.9837,74.8063,0,C,64128,280,1,-9.9915e-05,-0.00012853,0,0.492,SpaceX-E
STARLINK-11679 [DTC],2025-111G,2025-10-07T19:07:42.000010,15.70813646,0.0001705,43.0001,175.1653,269.9683,178.8123,0,C,64129,280,1,2.5789e-05,3.3174e-05,0,0.362,SpaceX-E
STARLINK-11735 [DTC],2025-111H,2025-10-07T19:05:42.000000,15.70818692,0.000166,43.0001,175.4722,264.2934,56.3741,0,C,64130,280,1,-1.3401e-05,-1.7239e-05,0,0.437,SpaceX-E
STARLINK-11720 [DTC],2025-111J,2025-10-07T19:06:41.999962,15.70825509,0.0001618,43.0003,175.2435,267.1426,147.637,0,C,64131,280,1,-6.1365e-05,-7.8939e-05,0,0.438,SpaceX-E
STARLINK-11718 [DTC],2025-111K,2025-10-07T19:11:42.000029,15.70793573,0.0001863,43.0,175.756,266.1351,312.7525,0,C,64132,280,1,0.00012634,0.00016247,0,0.368,SpaceX-E
STARLINK-11716 [DTC],2025-111L,2025-10-07T19:08:41.999971,15.7082229,0.0001615,43.0001,175.6808,269.2596,333.0223,0,C,64133,280,1,-2.7622e-05,-3.5534e-05,0,0.375,SpaceX-E
STARLINK-11714 [DTC],2025-111M,2025-10-07T19:02:42.000029,15.70823672,0.0001962,43.0003,175.0352,263.7121,225.5256,0,C,64134,280,1,-6.1068e-05,-7.8554e-05,0,0.475,SpaceX-E
STARLINK-11712 [DTC],2025-111N,2025-10-07T19:02:42.000029,15.7082219,0.0001562,43.0001,175.8574,268.0871,250.4776,0,C,64135,280,1,-2.9367e-05,-3.7778e-05,0,0.376,SpaceX-E
STARLINK-34254,2025-111P,2025-10-07T09:26:42.000029,15.27555708,0.0001482,43.0002,223.2916,272.5843,41.3238,0,C,64136,280,1,0.0013151,0.00036325,0,0.313,SpaceX-E
STARLINK-34230,2025-111Q,2025-10-07T09:30:41.999962,15.27561967,0.0001562,43.0045,223.7009,268.1284,244.2063,0,C,64137,280,1,0.0014265,0.00039412,0,0.346,SpaceX-E
STARLINK-34129,2025-111R,2025-10-07T09:31:42.000010,15.27527641,0.00016,43.0047,223.7997,262.2791,211.5152,0,C,64138,280,1,0.0015003,0.0004141,0,0.292,SpaceX-E
STARLINK-34212,2025-111S,2025-10-07T09:24:42.000019,15.27551663,0.0001239,43.0015,223.4332,260.4381,349.2266,0,C,64139,280,1,0.0015243,0.00042103,0,0.259,SpaceX-E
STARLINK-34149,2025-111T,2025-10-07T09:30:41.999962,15.27543692,0.0001231,43.0034,223.5488,253.7752,322.2431,0,C,64140,280,1,0.0015421,0.00042586,0,0.26,SpaceX-E
STARLINK-34054,2025-111U,2025-10-07T09:30:41.999962,15.27548258,0.0001543,43.0031,223.5136,274.1613,316.0035,0,C,64141,280,1,0.001505,0.00041567,0,0.269,SpaceX-E
STARLINK-34195,2025-111V,2025-10-07T09:28:42.000038,15.2755149,0.000149,43.0011,223.3648,274.4836,11.7062,0,C,64142,280,1,0.0014878,0.00041094,0,0.299,SpaceX-E
STARLINK-34133,2025-111W,2025-10-07T09:32:41.999971,15.27546852,0.0001454,43.0005,223.2973,277.6967,45.0164,0,C,64143,280,1,0.0014562,0.00040214,0,0.32,SpaceX-E
STARLINK-34181,2025-111X,2025-10-07T09:28:42.000038,15.27552064,0.0001537,43.0035,223.6078,270.1433,276.9893,0,C,64144,280,1,0.0015854,0.00043795,0,0.261,SpaceX-E
STARLINK-34186,2025-111Y,2025-10-07T09:29:42.000000,15.27501851,0.000169,43.0049,223.7195,253.3682,248.0512,0,C,64145,280,1,0.0015122,0.00041706,0,0.266,SpaceX-E
STARLINK-34314,2025-112A,2025-10-07T09:30:41.999962,15.05636607,9.84e-05,97.604,330.3897,94.1019,159.8055,0,C,64146,280,1,0.00059802,8.6108e-05,0,0.366,SpaceX-E
STARLINK-33926,2025-112B,2025-10-07T19:54:42.000019,15.05682715,0.0001125,97.6029,330.8754,113.0431,103.1286,0,C,64147,280,1,-0.002077,-0.00029913,0,0.261,SpaceX-E
STARLINK-34213,2025-112C,2025-10-07T09:30:41.999962,15.05660537,8.91e-05,97.6031,330.3703,101.92,106.9993,0,C,64148,280,1,0.0005417,7.8048e-05,0,0.375,SpaceX-E
STARLINK-33924,2025-112D,2025-10-07T19:53:41.999971,15.05680317,2.03e-05,97.6033,330.779,121.1023,226.3652,0,C,64149,280,1,-0.0020342,-0.00029295,0,0.259,SpaceX-E
STARLINK-34209,2025-112E,2025-10-07T09:29:42.000000,15.0564215,6.45e-05,97.6031,330.465,100.1862,329.9123,0,C,64150,280,1,0.00049203,7.0855e-05,0,0.363,SpaceX-E
STARLINK-34338,2025-112F,2025-10-07T09:23:41.999971,15.05644292,1.83e-05,97.6033,330.4809,126.7969,325.7216,0,C,64151,280,1,0.00046252,6.6607e-05,0,0.37,SpaceX-E
STARLINK-34348,2025-112G,2025-10-07T09:29:42.000000,15.05640908,0.0002055,97.6043,330.4105,111.4255,183.6953,0,C,64152,280,1,0.00061964,8.9236e-05,0,0.362,SpaceX-E
